[{"OBJECT_NAME":"STARLINK-5246","OBJECT_ID":"2022-141AT","EPOCH":"2026-03-09T23:28:38.960544","MEAN_MOTION":15.08844367,"ECCENTRICITY":0.0001246,"INCLINATION":53.2201,"RA_OF_ASC_NODE":352.6702,"ARG_OF_PERICENTER":87.9274,"MEAN_ANOMALY":272.1861,"EPHEMERIS_TYPE":0,"CLASSIFICATION_TYPE":"U","NORAD_CAT_ID":54198,"ELEMENT_SET_NO":999,"REV_AT_EPOCH":18604,"BSTAR":0.00025108637,"MEAN_MOTION_DOT":3.711e-5,"MEAN_MOTION_DDOT":0},{"OBJECT_NAME":"PSLV DEB","OBJECT_ID":"2001-049PF","EPOCH":"2026-02-25T09:35:51.227808","MEAN_MOTION":15.03011877,"ECCENTRICITY":0.00263657,"INCLINATION":98.0083,"RA_OF_ASC_NODE":118.9106,"ARG_OF_PERICENTER":265.6966,"MEAN_ANOMALY":94.1245,"EPHEMERIS_TYPE":0,"CLASSIFICATION_TYPE":"U","NORAD_CAT_ID":28853,"ELEMENT_SET_NO":999,"REV_AT_EPOCH":68879,"BSTAR":0.00037786861,"MEAN_MOTION_DOT":5.057e-5,"MEAN_MOTION_DDOT":0}]
